CCSDS_OMM_VERS = 2.0
CREATION_DATE  = 
ORIGINATOR     = 

OBJECT_NAME    = SL-8 R/B
OBJECT_ID      = 1985-006B
CENTER_NAME    = EARTH
REF_FRAME      = TEME
TIME_SYSTEM    = UTC
MEAN_ELEMENT_THEORY = SGP/SGP4

EPOCH          = 2026-01-02T11:54:33.367392
MEAN_MOTION    = 14.37737217
ECCENTRICITY   = .00195255
INCLINATION    = 74.0458
RA_OF_ASC_NODE = 22.9444
ARG_OF_PERICENTER = 311.2554
MEAN_ANOMALY   = 158.2978

EPHEMERIS_TYPE = 0
CLASSIFICATION_TYPE = U
NORAD_CAT_ID   = 15483
ELEMENT_SET_NO = 999
REV_AT_EPOCH   = 14451
BSTAR          = .20356144E-3
MEAN_MOTION_DOT = .587E-5
MEAN_MOTION_DDOT = 0

CCSDS_OMM_VERS = 2.0
CREATION_DATE  = 
ORIGINATOR     = 

OBJECT_NAME    = SL-12 R/B(2)
OBJECT_ID      = 1985-042D
CENTER_NAME    = EARTH
REF_FRAME      = TEME
TIME_SYSTEM    = UTC
MEAN_ELEMENT_THEORY = SGP/SGP4

EPOCH          = 2026-01-02T20:28:51.011616
MEAN_MOTION    = 14.21959014
ECCENTRICITY   = .0037006
INCLINATION    = 71.1067
RA_OF_ASC_NODE = 226.8164
ARG_OF_PERICENTER = 230.4091
MEAN_ANOMALY   = 207.6951

EPHEMERIS_TYPE = 0
CLASSIFICATION_TYPE = U
NORAD_CAT_ID   = 15772
ELEMENT_SET_NO = 999
REV_AT_EPOCH   = 10503
BSTAR          = .86752E-4
MEAN_MOTION_DOT = .145E-5
MEAN_MOTION_DDOT = 0

CCSDS_OMM_VERS = 2.0
CREATION_DATE  = 
ORIGINATOR     = 

OBJECT_NAME    = SL-14 R/B
OBJECT_ID      = 1985-069B
CENTER_NAME    = EARTH
REF_FRAME      = TEME
TIME_SYSTEM    = UTC
MEAN_ELEMENT_THEORY = SGP/SGP4

EPOCH          = 2026-01-02T16:56:10.573152
MEAN_MOTION    = 14.86352882
ECCENTRICITY   = .0019993
INCLINATION    = 82.5270
RA_OF_ASC_NODE = 86.9931
ARG_OF_PERICENTER = 53.8828
MEAN_ANOMALY   = 306.4235

EPHEMERIS_TYPE = 0
CLASSIFICATION_TYPE = U
NORAD_CAT_ID   = 15945
ELEMENT_SET_NO = 999
REV_AT_EPOCH   = 16303
BSTAR          = .10624E-3
MEAN_MOTION_DOT = .964E-5
MEAN_MOTION_DDOT = 0

CCSDS_OMM_VERS = 2.0
CREATION_DATE  = 
ORIGINATOR     = 

OBJECT_NAME    = SL-16 R/B
OBJECT_ID      = 1985-097B
CENTER_NAME    = EARTH
REF_FRAME      = TEME
TIME_SYSTEM    = UTC
MEAN_ELEMENT_THEORY = SGP/SGP4

EPOCH          = 2026-01-02T19:44:44.304000
MEAN_MOTION    = 14.16587350
ECCENTRICITY   = .0007955
INCLINATION    = 71.0029
RA_OF_ASC_NODE = 279.2188
ARG_OF_PERICENTER = 339.4657
MEAN_ANOMALY   = 83.9898

EPHEMERIS_TYPE = 0
CLASSIFICATION_TYPE = U
NORAD_CAT_ID   = 16182
ELEMENT_SET_NO = 999
REV_AT_EPOCH   = 7790
BSTAR          = .10994E-3
MEAN_MOTION_DOT = .171E-5
MEAN_MOTION_DDOT = 0

CCSDS_OMM_VERS = 2.0
CREATION_DATE  = 
ORIGINATOR     = 

OBJECT_NAME    = SL-14 R/B
OBJECT_ID      = 1986-006B
CENTER_NAME    = EARTH
REF_FRAME      = TEME
TIME_SYSTEM    = UTC
MEAN_ELEMENT_THEORY = SGP/SGP4

EPOCH          = 2026-01-02T20:00:58.672224
MEAN_MOTION    = 14.86704517
ECCENTRICITY   = .0077862
INCLINATION    = 82.5279
RA_OF_ASC_NODE = 321.7035
ARG_OF_PERICENTER = 130.2144
MEAN_ANOMALY   = 230.5922

EPHEMERIS_TYPE = 0
CLASSIFICATION_TYPE = U
NORAD_CAT_ID   = 16496
ELEMENT_SET_NO = 999
REV_AT_EPOCH   = 13942
BSTAR          = .12617E-3
MEAN_MOTION_DOT = .1213E-4
MEAN_MOTION_DDOT = 0

CCSDS_OMM_VERS = 2.0
CREATION_DATE  = 
ORIGINATOR     = 

OBJECT_NAME    = COSMOS 1743
OBJECT_ID      = 1986-034A
CENTER_NAME    = EARTH
REF_FRAME      = TEME
TIME_SYSTEM    = UTC
MEAN_ELEMENT_THEORY = SGP/SGP4

EPOCH          = 2026-01-02T19:00:07.607808
MEAN_MOTION    = 15.53563596
ECCENTRICITY   = .0004987
INCLINATION    = 82.5352
RA_OF_ASC_NODE = 142.7049
ARG_OF_PERICENTER = 170.6309
MEAN_ANOMALY   = 189.5038

EPHEMERIS_TYPE = 0
CLASSIFICATION_TYPE = U
NORAD_CAT_ID   = 16719
ELEMENT_SET_NO = 999
REV_AT_EPOCH   = 17000
BSTAR          = .68419E-3
MEAN_MOTION_DOT = .43743E-3
MEAN_MOTION_DDOT = 0

CCSDS_OMM_VERS = 2.0
CREATION_DATE  = 
ORIGINATOR     = 

OBJECT_NAME    = SL-14 R/B
OBJECT_ID      = 1986-046B
CENTER_NAME    = EARTH
REF_FRAME      = TEME
TIME_SYSTEM    = UTC
MEAN_ELEMENT_THEORY = SGP/SGP4

EPOCH          = 2026-01-02T19:09:06.471648
MEAN_MOTION    = 14.85514142
ECCENTRICITY   = .0024538
INCLINATION    = 82.4827
RA_OF_ASC_NODE = 142.4270
ARG_OF_PERICENTER = 86.0791
MEAN_ANOMALY   = 274.3230

EPHEMERIS_TYPE = 0
CLASSIFICATION_TYPE = U
NORAD_CAT_ID   = 16792
ELEMENT_SET_NO = 999
REV_AT_EPOCH   = 11662
BSTAR          = .12239E-3
MEAN_MOTION_DOT = .1086E-4
MEAN_MOTION_DDOT = 0

CCSDS_OMM_VERS = 2.0
CREATION_DATE  = 
ORIGINATOR     = 

OBJECT_NAME    = SL-14 R/B
OBJECT_ID      = 1986-055B
CENTER_NAME    = EARTH
REF_FRAME      = TEME
TIME_SYSTEM    = UTC
MEAN_ELEMENT_THEORY = SGP/SGP4

EPOCH          = 2026-01-02T12:25:39.114048
MEAN_MOTION    = 14.85556899
ECCENTRICITY   = .00186672
INCLINATION    = 82.5197
RA_OF_ASC_NODE = 188.8480
ARG_OF_PERICENTER = 186.8859
MEAN_ANOMALY   = 189.8426

EPHEMERIS_TYPE = 0
CLASSIFICATION_TYPE = U
NORAD_CAT_ID   = 16882
ELEMENT_SET_NO = 999
REV_AT_EPOCH   = 10954
BSTAR          = .12123074E-3
MEAN_MOTION_DOT = .1075E-4
MEAN_MOTION_DDOT = 0

CCSDS_OMM_VERS = 2.0
CREATION_DATE  = 
ORIGINATOR     = 

OBJECT_NAME    = AJISAI (EGS)
OBJECT_ID      = 1986-061A
CENTER_NAME    = EARTH
REF_FRAME      = TEME
TIME_SYSTEM    = UTC
MEAN_ELEMENT_THEORY = SGP/SGP4

EPOCH          = 2026-01-02T20:36:01.503072
MEAN_MOTION    = 12.44514581
ECCENTRICITY   = .0011318
INCLINATION    = 50.0105
RA_OF_ASC_NODE = 295.7799
ARG_OF_PERICENTER = 118.9031
MEAN_ANOMALY   = 286.0565

EPHEMERIS_TYPE = 0
CLASSIFICATION_TYPE = U
NORAD_CAT_ID   = 16908
ELEMENT_SET_NO = 999
REV_AT_EPOCH   = 45980
BSTAR          = .14047E-3
MEAN_MOTION_DOT = -.78E-6
MEAN_MOTION_DDOT = 0

CCSDS_OMM_VERS = 2.0
CREATION_DATE  = 
ORIGINATOR     = 

OBJECT_NAME    = COSMOS 1812
OBJECT_ID      = 1987-003A
CENTER_NAME    = EARTH
REF_FRAME      = TEME
TIME_SYSTEM    = UTC
MEAN_ELEMENT_THEORY = SGP/SGP4

EPOCH          = 2026-01-02T18:52:45.790176
MEAN_MOTION    = 15.80688673
ECCENTRICITY   = .0004809
INCLINATION    = 82.4863
RA_OF_ASC_NODE = 269.1570
ARG_OF_PERICENTER = 61.9631
MEAN_ANOMALY   = 298.2122

EPHEMERIS_TYPE = 0
CLASSIFICATION_TYPE = U
NORAD_CAT_ID   = 17295
ELEMENT_SET_NO = 999
REV_AT_EPOCH   = 13397
BSTAR          = .9176E-3
MEAN_MOTION_DOT = .178398E-2
MEAN_MOTION_DDOT = 0

CCSDS_OMM_VERS = 2.0
CREATION_DATE  = 
ORIGINATOR     = 

OBJECT_NAME    = SL-14 R/B
OBJECT_ID      = 1987-024B
CENTER_NAME    = EARTH
REF_FRAME      = TEME
TIME_SYSTEM    = UTC
MEAN_ELEMENT_THEORY = SGP/SGP4

EPOCH          = 2026-01-02T18:54:41.521248
MEAN_MOTION    = 14.86053258
ECCENTRICITY   = .0019476
INCLINATION    = 82.5286
RA_OF_ASC_NODE = 154.6817
ARG_OF_PERICENTER = 117.0348
MEAN_ANOMALY   = 243.2860

EPHEMERIS_TYPE = 0
CLASSIFICATION_TYPE = U
NORAD_CAT_ID   = 17567
ELEMENT_SET_NO = 999
REV_AT_EPOCH   = 7834
BSTAR          = .1236E-3
MEAN_MOTION_DOT = .1109E-4
MEAN_MOTION_DDOT = 0

CCSDS_OMM_VERS = 2.0
CREATION_DATE  = 
ORIGINATOR     = 

OBJECT_NAME    = COSMOS 1833
OBJECT_ID      = 1987-027A
CENTER_NAME    = EARTH
REF_FRAME      = TEME
TIME_SYSTEM    = UTC
MEAN_ELEMENT_THEORY = SGP/SGP4

EPOCH          = 2026-01-02T17:49:26.475456
MEAN_MOTION    = 14.13034621
ECCENTRICITY   = .0023522
INCLINATION    = 70.9181
RA_OF_ASC_NODE = 104.6279
ARG_OF_PERICENTER = 302.5285
MEAN_ANOMALY   = 57.3563

EPHEMERIS_TYPE = 0
CLASSIFICATION_TYPE = U
NORAD_CAT_ID   = 17589
ELEMENT_SET_NO = 999
REV_AT_EPOCH   = 100
BSTAR          = .21211E-3
MEAN_MOTION_DOT = .349E-5
MEAN_MOTION_DDOT = 0

CCSDS_OMM_VERS = 2.0
CREATION_DATE  = 
ORIGINATOR     = 

OBJECT_NAME    = SL-16 R/B
OBJECT_ID      = 1987-027B
CENTER_NAME    = EARTH
REF_FRAME      = TEME
TIME_SYSTEM    = UTC
MEAN_ELEMENT_THEORY = SGP/SGP4

EPOCH          = 2026-01-02T13:18:24.676992
MEAN_MOTION    = 14.17156208
ECCENTRICITY   = .00069952
INCLINATION    = 71.0030
RA_OF_ASC_NODE = 55.8582
ARG_OF_PERICENTER = 237.9923
MEAN_ANOMALY   = 122.0521

EPHEMERIS_TYPE = 0
CLASSIFICATION_TYPE = U
NORAD_CAT_ID   = 17590
ELEMENT_SET_NO = 999
REV_AT_EPOCH   = 597
BSTAR          = .42384237E-4
MEAN_MOTION_DOT = .38E-6
MEAN_MOTION_DDOT = 0

CCSDS_OMM_VERS = 2.0
CREATION_DATE  = 
ORIGINATOR     = 

OBJECT_NAME    = SL-14 R/B
OBJECT_ID      = 1987-038B
CENTER_NAME    = EARTH
REF_FRAME      = TEME
TIME_SYSTEM    = UTC
MEAN_ELEMENT_THEORY = SGP/SGP4

EPOCH          = 2026-01-02T11:30:32.668992
MEAN_MOTION    = 14.85286627
ECCENTRICITY   = .00200284
INCLINATION    = 82.5012
RA_OF_ASC_NODE = 359.1639
ARG_OF_PERICENTER = 27.7987
MEAN_ANOMALY   = 332.4295

EPHEMERIS_TYPE = 0
CLASSIFICATION_TYPE = U
NORAD_CAT_ID   = 17912
ELEMENT_SET_NO = 999
REV_AT_EPOCH   = 6940
BSTAR          = .11565786E-3
MEAN_MOTION_DOT = .102E-4
MEAN_MOTION_DDOT = 0

CCSDS_OMM_VERS = 2.0
CREATION_DATE  = 
ORIGINATOR     = 

OBJECT_NAME    = COSMOS 1844
OBJECT_ID      = 1987-041A
CENTER_NAME    = EARTH
REF_FRAME      = TEME
TIME_SYSTEM    = UTC
MEAN_ELEMENT_THEORY = SGP/SGP4

EPOCH          = 2026-01-02T20:20:18.449664
MEAN_MOTION    = 14.14538191
ECCENTRICITY   = .0028897
INCLINATION    = 70.8987
RA_OF_ASC_NODE = 173.0515
ARG_OF_PERICENTER = 123.7192
MEAN_ANOMALY   = 236.6690

EPHEMERIS_TYPE = 0
CLASSIFICATION_TYPE = U
NORAD_CAT_ID   = 17973
ELEMENT_SET_NO = 999
REV_AT_EPOCH   = 99427
BSTAR          = .14633E-3
MEAN_MOTION_DOT = .234E-5
MEAN_MOTION_DDOT = 0

